{
  "type": "FeatureCollection",
  "features": [
    {
      "type": "Feature",
      "properties": {
        "norad_id": 36533,
        "name": "COSMOS 2251 DEB",
        "group": "cosmos-2251-debris",
        "lat": -19.927270245613297,
        "lon": -62.72333211939666,
        "alt_km": 713.0617813546878,
        "timestamp": "2025-12-14T14:39:29.766507+00:00",
        "meta_object_name": "COSMOS 2251 DEB",
        "meta_object_id": "1993-036BCT",
        "meta_epoch": "2025-12-12T08:44:14.485056",
        "meta_mean_motion": 14.49814074,
        "meta_eccentricity": 0.00492413,
        "meta_inclination": 74.0111,
        "meta_ra_of_asc_node": 115.5327,
        "meta_arg_of_pericenter": 264.7641,
        "meta_mean_anomaly": 94.7899,
        "meta_ephemeris_type": 0,
        "meta_classification_type": "U",
        "meta_norad_cat_id": 36533,
        "meta_element_set_no": 999,
        "meta_rev_at_epoch": 84479,
        "meta_bstar": 0.00081187814,
        "meta_mean_motion_dot": 3.153e-05,
        "meta_mean_motion_ddot": 0,
        "tle_line1": "1 36533U 93036BCT 25346.36405654  .00003153  00000+0  81188-3 0  9994",
        "tle_line2": "2 36533  74.0111 115.5327 0049241 264.7641  94.7899 14.49814074844790"
      },
      "geometry": {
        "type": "Point",
        "coordinates": [
          -62.72333211939666,
          -19.927270245613297
        ]
      }
    },
    {
      "type": "Feature",
      "properties": {
        "norad_id": 36539,
        "name": "COSMOS 2251 DEB",
        "group": "cosmos-2251-debris",
        "lat": 67.50874663477313,
        "lon": -172.17031839000933,
        "alt_km": 688.5380233989326,
        "timestamp": "2025-12-14T14:39:29.766517+00:00",
        "meta_object_name": "COSMOS 2251 DEB",
        "meta_object_id": "1993-036BCZ",
        "meta_epoch": "2025-12-13T21:43:10.824960",
        "meta_mean_motion": 14.59313879,
        "meta_eccentricity": 0.00271357,
        "meta_inclination": 74.0243,
        "meta_ra_of_asc_node": 52.957,
        "meta_arg_of_pericenter": 197.955,
        "meta_mean_anomaly": 162.0659,
        "meta_ephemeris_type": 0,
        "meta_classification_type": "U",
        "meta_norad_cat_id": 36539,
        "meta_element_set_no": 999,
        "meta_rev_at_epoch": 83964,
        "meta_bstar": 0.00083084857,
        "meta_mean_motion_dot": 3.92e-05,
        "meta_mean_motion_ddot": 0,
        "tle_line1": "1 36539U 93036BCZ 25347.90498640  .00003920  00000+0  83085-3 0  9998",
        "tle_line2": "2 36539  74.0243  52.9570 0027135 197.9550 162.0659 14.59313879839649"
      },
      "geometry": {
        "type": "Point",
        "coordinates": [
          -172.17031839000933,
          67.50874663477313
        ]
      }
    },
    {
      "type": "Feature",
      "properties": {
        "norad_id": 36540,
        "name": "COSMOS 2251 DEB",
        "group": "cosmos-2251-debris",
        "lat": 58.64603431359149,
        "lon": -155.01103560827758,
        "alt_km": 702.5390766556266,
        "timestamp": "2025-12-14T14:39:29.766527+00:00",
        "meta_object_name": "COSMOS 2251 DEB",
        "meta_object_id": "1993-036BDA",
        "meta_epoch": "2025-12-13T18:37:01.077024",
        "meta_mean_motion": 14.58495892,
        "meta_eccentricity": 0.00149508,
        "meta_inclination": 74.0294,
        "meta_ra_of_asc_node": 178.5434,
        "meta_arg_of_pericenter": 248.6284,
        "meta_mean_anomaly": 111.3286,
        "meta_ephemeris_type": 0,
        "meta_classification_type": "U",
        "meta_norad_cat_id": 36540,
        "meta_element_set_no": 999,
        "meta_rev_at_epoch": 86025,
        "meta_bstar": 0.0012951395,
        "meta_mean_motion_dot": 6e-05,
        "meta_mean_motion_ddot": 0,
        "tle_line1": "1 36540U 93036BDA 25347.77570691  .00006000  00000+0  12951-2 0  9997",
        "tle_line2": "2 36540  74.0294 178.5434 0014950 248.6284 111.3286 14.58495892860259"
      },
      "geometry": {
        "type": "Point",
        "coordinates": [
          -155.01103560827758,
          58.64603431359149
        ]
      }
    },
    {
      "type": "Feature",
      "properties": {
        "norad_id": 36550,
        "name": "COSMOS 2251 DEB",
        "group": "cosmos-2251-debris",
        "lat": 49.411317080573205,
        "lon": -151.13491849673798,
        "alt_km": 852.0406807793561,
        "timestamp": "2025-12-14T14:39:29.766539+00:00",
        "meta_object_name": "COSMOS 2251 DEB",
        "meta_object_id": "1993-036BDL",
        "meta_epoch": "2025-12-12T06:53:46.055040",
        "meta_mean_motion": 14.27197589,
        "meta_eccentricity": 0.00783785,
        "meta_inclination": 74.0439,
        "meta_ra_of_asc_node": 193.5589,
        "meta_arg_of_pericenter": 244.3101,
        "meta_mean_anomaly": 114.994,
        "meta_ephemeris_type": 0,
        "meta_classification_type": "U",
        "meta_norad_cat_id": 36550,
        "meta_element_set_no": 999,
        "meta_rev_at_epoch": 84589,
        "meta_bstar": 0.00090622054,
        "meta_mean_motion_dot": 2.261e-05,
        "meta_mean_motion_ddot": 0,
        "tle_line1": "1 36550U 93036BDL 25346.28733860  .00002261  00000+0  90622-3 0  9999",
        "tle_line2": "2 36550  74.0439 193.5589 0078378 244.3101 114.9940 14.27197589845891"
      },
      "geometry": {
        "type": "Point",
        "coordinates": [
          -151.13491849673798,
          49.411317080573205
        ]
      }
    },
    {
      "type": "Feature",
      "properties": {
        "norad_id": 36551,
        "name": "COSMOS 2251 DEB",
        "group": "cosmos-2251-debris",
        "lat": -68.509158008595,
        "lon": -121.90754424409461,
        "alt_km": 549.8647067940119,
        "timestamp": "2025-12-14T14:39:29.766553+00:00",
        "meta_object_name": "COSMOS 2251 DEB",
        "meta_object_id": "1993-036BDM",
        "meta_epoch": "2025-12-12T08:47:24.108864",
        "meta_mean_motion": 15.02551083,
        "meta_eccentricity": 0.00509575,
        "meta_inclination": 73.8872,
        "meta_ra_of_asc_node": 15.4722,
        "meta_arg_of_pericenter": 324.547,
        "meta_mean_anomaly": 35.2333,
        "meta_ephemeris_type": 0,
        "meta_classification_type": "U",
        "meta_norad_cat_id": 36551,
        "meta_element_set_no": 999,
        "meta_rev_at_epoch": 66926,
        "meta_bstar": 0.0018916563,
        "meta_mean_motion_dot": 0.00025929,
        "meta_mean_motion_ddot": 0,
        "tle_line1": "1 36551U 93036BDM 25346.36625126  .00025929  00000+0  18917-2 0  9996",
        "tle_line2": "2 36551  73.8872  15.4722 0050957 324.5470  35.2333 15.02551083669267"
      },
      "geometry": {
        "type": "Point",
        "coordinates": [
          -121.90754424409461,
          -68.509158008595
        ]
      }
    },
    {
      "type": "Feature",
      "properties": {
        "norad_id": 36557,
        "name": "COSMOS 2251 DEB",
        "group": "cosmos-2251-debris",
        "lat": 68.24561065191898,
        "lon": 168.62567102378384,
        "alt_km": 641.8978755121725,
        "timestamp": "2025-12-14T14:39:29.766563+00:00",
        "meta_object_name": "COSMOS 2251 DEB",
        "meta_object_id": "1993-036BDT",
        "meta_epoch": "2025-12-13T15:34:52.969152",
        "meta_mean_motion": 14.78308726,
        "meta_eccentricity": 0.00217325,
        "meta_inclination": 73.9776,
        "meta_ra_of_asc_node": 124.4564,
        "meta_arg_of_pericenter": 276.4818,
        "meta_mean_anomaly": 83.3883,
        "meta_ephemeris_type": 0,
        "meta_classification_type": "U",
        "meta_norad_cat_id": 36557,
        "meta_element_set_no": 999,
        "meta_rev_at_epoch": 33910,
        "meta_bstar": 0.003640175,
        "meta_mean_motion_dot": 0.00026637,
        "meta_mean_motion_ddot": 0,
        "tle_line1": "1 36557U 93036BDT 25347.64922418  .00026637  00000+0  36402-2 0  9994",
        "tle_line2": "2 36557  73.9776 124.4564 0021732 276.4818  83.3883 14.78308726339109"
      },
      "geometry": {
        "type": "Point",
        "coordinates": [
          168.62567102378384,
          68.24561065191898
        ]
      }
    },
    {
      "type": "Feature",
      "properties": {
        "norad_id": 36558,
        "name": "COSMOS 2251 DEB",
        "group": "cosmos-2251-debris",
        "lat": -37.699258477263676,
        "lon": -16.22211138592833,
        "alt_km": 705.5601644022245,
        "timestamp": "2025-12-14T14:39:29.766573+00:00",
        "meta_object_name": "COSMOS 2251 DEB",
        "meta_object_id": "1993-036BDU",
        "meta_epoch": "2025-12-13T04:39:28.280448",
        "meta_mean_motion": 14.5536689,
        "meta_eccentricity": 0.00129076,
        "meta_inclination": 74.0417,
        "meta_ra_of_asc_node": 153.6824,
        "meta_arg_of_pericenter": 242.3004,
        "meta_mean_anomaly": 117.6851,
        "meta_ephemeris_type": 0,
        "meta_classification_type": "U",
        "meta_norad_cat_id": 36558,
        "meta_element_set_no": 999,
        "meta_rev_at_epoch": 85275,
        "meta_bstar": 0.0014840285,
        "meta_mean_motion_dot": 6.426e-05,
        "meta_mean_motion_ddot": 0,
        "tle_line1": "1 36558U 93036BDU 25347.19407732  .00006426  00000+0  14840-2 0  9998",
        "tle_line2": "2 36558  74.0417 153.6824 0012907 242.3004 117.6851 14.55366890852758"
      },
      "geometry": {
        "type": "Point",
        "coordinates": [
          -16.22211138592833,
          -37.699258477263676
        ]
      }
    }
  ]
}